{
  "type": "FeatureCollection",
  "features": [
    {
      "type": "Feature",
      "properties": {
        "norad_id": 66503,
        "name": "STARLINK-35917",
        "group": "last-30-days",
        "lat": 33.03826184996559,
        "lon": 172.25491359610058,
        "alt_km": 418.9402706210212,
        "timestamp": "2025-12-12T05:47:27.525104+00:00",
        "meta_object_name": "STARLINK-35917",
        "meta_object_id": "2025-263U",
        "meta_epoch": "2025-12-11T20:00:01.999872",
        "meta_mean_motion": 15.49488372,
        "meta_eccentricity": 0.0001435,
        "meta_inclination": 43.0003,
        "meta_ra_of_asc_node": 130.3745,
        "meta_arg_of_pericenter": 271.7266,
        "meta_mean_anomaly": 24.491,
        "meta_ephemeris_type": 0,
        "meta_classification_type": "U",
        "meta_norad_cat_id": 66503,
        "meta_element_set_no": 999,
        "meta_rev_at_epoch": 549,
        "meta_bstar": -0.040073527,
        "meta_mean_motion_dot": -0.0201763,
        "meta_mean_motion_ddot": 0,
        "tle_line1": "1 66503U 25263U   25345.83335648 -.02017630  00000+0 -40074-1 0  9993",
        "tle_line2": "2 66503  43.0003 130.3745 0001435 271.7266  24.4910 15.49488372  5498"
      },
      "geometry": {
        "type": "Point",
        "coordinates": [
          172.25491359610058,
          33.03826184996559
        ]
      }
    },
    {
      "type": "Feature",
      "properties": {
        "norad_id": 66504,
        "name": "STARLINK-35916",
        "group": "last-30-days",
        "lat": 15.869286984981429,
        "lon": -68.25754474731097,
        "alt_km": 441.7583230482369,
        "timestamp": "2025-12-12T05:47:27.525114+00:00",
        "meta_object_name": "STARLINK-35916",
        "meta_object_id": "2025-263V",
        "meta_epoch": "2025-12-11T18:13:29.701056",
        "meta_mean_motion": 15.40730519,
        "meta_eccentricity": 0.00019694,
        "meta_inclination": 43.0002,
        "meta_ra_of_asc_node": 132.2825,
        "meta_arg_of_pericenter": 261.4759,
        "meta_mean_anomaly": 98.5874,
        "meta_ephemeris_type": 0,
        "meta_classification_type": "U",
        "meta_norad_cat_id": 66504,
        "meta_element_set_no": 999,
        "meta_rev_at_epoch": 539,
        "meta_bstar": 0.0008844206,
        "meta_mean_motion_dot": 0.00036858,
        "meta_mean_motion_ddot": 0,
        "tle_line1": "1 66504U 25263V   25345.75937154  .00036858  00000+0  88442-3 0  9997",
        "tle_line2": "2 66504  43.0002 132.2825 0001969 261.4759  98.5874 15.40730519  5397"
      },
      "geometry": {
        "type": "Point",
        "coordinates": [
          -68.25754474731097,
          15.869286984981429
        ]
      }
    },
    {
      "type": "Feature",
      "properties": {
        "norad_id": 66505,
        "name": "STARLINK-34766",
        "group": "last-30-days",
        "lat": 30.852751150494562,
        "lon": 167.87578301535893,
        "alt_km": 410.7544994224754,
        "timestamp": "2025-12-12T05:47:27.525125+00:00",
        "meta_object_name": "STARLINK-34766",
        "meta_object_id": "2025-263W",
        "meta_epoch": "2025-12-11T20:00:01.999872",
        "meta_mean_motion": 15.50552281,
        "meta_eccentricity": 0.00012868,
        "meta_inclination": 43.0006,
        "meta_ra_of_asc_node": 130.3926,
        "meta_arg_of_pericenter": 280.5602,
        "meta_mean_anomaly": 8.4639,
        "meta_ephemeris_type": 0,
        "meta_classification_type": "U",
        "meta_norad_cat_id": 66505,
        "meta_element_set_no": 999,
        "meta_rev_at_epoch": 549,
        "meta_bstar": -0.00033306969,
        "meta_mean_motion_dot": -0.00019813,
        "meta_mean_motion_ddot": 0,
        "tle_line1": "1 66505U 25263W   25345.83335648 -.00019813  00000+0 -33307-3 0  9991",
        "tle_line2": "2 66505  43.0006 130.3926 0001286 280.5602   8.4639 15.50552281  5493"
      },
      "geometry": {
        "type": "Point",
        "coordinates": [
          167.87578301535893,
          30.852751150494562
        ]
      }
    },
    {
      "type": "Feature",
      "properties": {
        "norad_id": 66506,
        "name": "STARLINK-34765",
        "group": "last-30-days",
        "lat": 31.825097376761295,
        "lon": 169.7624607761117,
        "alt_km": 410.62659458868166,
        "timestamp": "2025-12-12T05:47:27.525137+00:00",
        "meta_object_name": "STARLINK-34765",
        "meta_object_id": "2025-263X",
        "meta_epoch": "2025-12-11T22:00:01.999584",
        "meta_mean_motion": 15.50484594,
        "meta_eccentricity": 0.0001562,
        "meta_inclination": 43.0001,
        "meta_ra_of_asc_node": 129.9007,
        "meta_arg_of_pericenter": 282.8839,
        "meta_mean_anomaly": 113.7657,
        "meta_ephemeris_type": 0,
        "meta_classification_type": "U",
        "meta_norad_cat_id": 66506,
        "meta_element_set_no": 999,
        "meta_rev_at_epoch": 550,
        "meta_bstar": 0.0020618251,
        "meta_mean_motion_dot": 0.00122109,
        "meta_mean_motion_ddot": 0,
        "tle_line1": "1 66506U 25263X   25345.91668981  .00122109  00000+0  20618-2 0  9991",
        "tle_line2": "2 66506  43.0001 129.9007 0001562 282.8839 113.7657 15.50484594  5500"
      },
      "geometry": {
        "type": "Point",
        "coordinates": [
          169.7624607761117,
          31.825097376761295
        ]
      }
    },
    {
      "type": "Feature",
      "properties": {
        "norad_id": 66507,
        "name": "STARLINK-34767",
        "group": "last-30-days",
        "lat": 26.59860496353961,
        "lon": 160.52790669127813,
        "alt_km": 428.44536052946114,
        "timestamp": "2025-12-12T05:47:27.525148+00:00",
        "meta_object_name": "STARLINK-34767",
        "meta_object_id": "2025-263Y",
        "meta_epoch": "2025-12-11T22:00:01.999584",
        "meta_mean_motion": 15.46229927,
        "meta_eccentricity": 0.00016269,
        "meta_inclination": 43.0002,
        "meta_ra_of_asc_node": 129.9092,
        "meta_arg_of_pericenter": 276.4317,
        "meta_mean_anomaly": 116.4894,
        "meta_ephemeris_type": 0,
        "meta_classification_type": "U",
        "meta_norad_cat_id": 66507,
        "meta_element_set_no": 999,
        "meta_rev_at_epoch": 550,
        "meta_bstar": -0.045140544,
        "meta_mean_motion_dot": -0.02025393,
        "meta_mean_motion_ddot": 0,
        "tle_line1": "1 66507U 25263Y   25345.91668981 -.02025393  00000+0 -45141-1 0  9990",
        "tle_line2": "2 66507  43.0002 129.9092 0001626 276.4317 116.4894 15.46229927  5502"
      },
      "geometry": {
        "type": "Point",
        "coordinates": [
          160.52790669127813,
          26.59860496353961
        ]
      }
    },
    {
      "type": "Feature",
      "properties": {
        "norad_id": 66508,
        "name": "STARLINK-35608",
        "group": "last-30-days",
        "lat": 36.28062679808554,
        "lon": 179.95149093661527,
        "alt_km": 410.76426378065025,
        "timestamp": "2025-12-12T05:47:27.525158+00:00",
        "meta_object_name": "STARLINK-35608",
        "meta_object_id": "2025-263Z",
        "meta_epoch": "2025-12-11T22:00:01.999584",
        "meta_mean_motion": 15.50783828,
        "meta_eccentricity": 0.00013338,
        "meta_inclination": 43.0001,
        "meta_ra_of_asc_node": 129.8761,
        "meta_arg_of_pericenter": 282.0493,
        "meta_mean_anomaly": 124.1307,
        "meta_ephemeris_type": 0,
        "meta_classification_type": "U",
        "meta_norad_cat_id": 66508,
        "meta_element_set_no": 999,
        "meta_rev_at_epoch": 550,
        "meta_bstar": -0.012875684,
        "meta_mean_motion_dot": -0.00696928,
        "meta_mean_motion_ddot": 0,
        "tle_line1": "1 66508U 25263Z   25345.91668981 -.00696928  00000+0 -12876-1 0  9996",
        "tle_line2": "2 66508  43.0001 129.8761 0001333 282.0493 124.1307 15.50783828  5502"
      },
      "geometry": {
        "type": "Point",
        "coordinates": [
          179.95149093661527,
          36.28062679808554
        ]
      }
    },
    {
      "type": "Feature",
      "properties": {
        "norad_id": 66509,
        "name": "STARLINK-35598",
        "group": "last-30-days",
        "lat": 39.19491941855984,
        "lon": -170.99164576486558,
        "alt_km": 409.6635752902357,
        "timestamp": "2025-12-12T05:47:27.525168+00:00",
        "meta_object_name": "STARLINK-35598",
        "meta_object_id": "2025-263AA",
        "meta_epoch": "2025-12-11T20:00:01.999872",
        "meta_mean_motion": 15.50529319,
        "meta_eccentricity": 0.0001454,
        "meta_inclination": 43.0003,
        "meta_ra_of_asc_node": 130.3427,
        "meta_arg_of_pericenter": 281.8482,
        "meta_mean_anomaly": 26.345,
        "meta_ephemeris_type": 0,
        "meta_classification_type": "U",
        "meta_norad_cat_id": 66509,
        "meta_element_set_no": 999,
        "meta_rev_at_epoch": 549,
        "meta_bstar": 0.00045643118,
        "meta_mean_motion_dot": 0.00026478,
        "meta_mean_motion_ddot": 0,
        "tle_line1": "1 66509U 25263AA  25345.83335648  .00026478  00000+0  45643-3 0  9994",
        "tle_line2": "2 66509  43.0003 130.3427 0001454 281.8482  26.3450 15.50529319  5493"
      },
      "geometry": {
        "type": "Point",
        "coordinates": [
          -170.99164576486558,
          39.19491941855984
        ]
      }
    }
  ]
}